{"type":"Feature","properties":{"nom":"Catalunya"},"geometry":{"type":"MultiPolygon","coordinates":[[[[0.438,40.5471],[0.4335,40.5654],[0.444,40.5782],[0.4307,40.5797],[0.3892,40.6066],[0.3453,40.6076],[0.2789,40.6301],[0.2662,40.6442],[0.2683,40.6596],[0.2919,40.6886],[0.2619,40.706],[0.236,40.7021],[0.2275,40.715],[0.2262,40.7332],[0.1973,40.7242],[0.1911,40.7312],[0.1708,40.7329],[0.1592,40.7506],[0.1754,40.7412],[0.1753,40.755],[0.1902,40.7503],[0.212,40.7675],[0.23,40.7675],[0.2336,40.787],[0.2578,40.8003],[0.2652,40.8138],[0.2783,40.8211],[0.2508,40.8563],[0.2554,40.8746],[0.239,40.8849],[0.2501,40.896],[0.2539,40.9197],[0.2743,40.9366],[0.2717,40.9448],[0.2935,40.9706],[0.2811,40.9749],[0.2811,40.9872],[0.2685,40.9983],[0.2743,41.0072],[0.2589,41.0139],[0.261,41.0189],[0.2799,41.0198],[0.2462,41.0413],[0.2343,41.0346],[0.2331,41.0471],[0.2178,41.0437],[0.2302,41.0539],[0.2182,41.0629],[0.2201,41.0829],[0.2012,41.0847],[0.2009,41.1027],[0.209,41.1169],[0.2013,41.1268],[0.2199,41.1324],[0.214,41.1373],[0.2479,41.1302],[0.2562,41.1437],[0.253,41.1502],[0.2731,41.1488],[0.292,41.1564],[0.3034,41.1644],[0.3224,41.2253],[0.3313,41.2227],[0.3413,41.2311],[0.36,41.2255],[0.3646,41.2387],[0.3813,41.2365],[0.3737,41.2494],[0.3857,41.2789],[0.3657,41.304],[0.3683,41.3186],[0.3486,41.3298],[0.3738,41.3504],[0.36,41.3705],[0.32,41.3949],[0.3419,41.4138],[0.3554,41.4518],[0.3446,41.4631],[0.3421,41.484],[0.3979,41.4913],[0.447,41.5423],[0.4304,41.5653],[0.4359,41.5849],[0.4285,41.6024],[0.4021,41.5927],[0.3496,41.5995],[0.3459,41.6219],[0.358,41.6317],[0.3263,41.6622],[0.3282,41.6811],[0.3687,41.7142],[0.3693,41.7247],[0.3848,41.7403],[0.3955,41.732],[0.3987,41.7578],[0.4697,41.7656],[0.4833,41.8015],[0.5155,41.8224],[0.5424,41.8204],[0.5534,41.8351],[0.5574,41.8542],[0.5801,41.8509],[0.5801,41.8635],[0.6073,41.8723],[0.6083,41.8783],[0.5928,41.8844],[0.601,41.9086],[0.5949,41.918],[0.6075,41.9193],[0.5625,41.9327],[0.5619,41.9382],[0.587,41.9668],[0.6044,41.9607],[0.6238,41.9918],[0.6386,41.9946],[0.642,41.9821],[0.6466,41.9968],[0.6573,42.0016],[0.6639,42.0146],[0.657,42.0149],[0.6517,42.0263],[0.6568,42.0404],[0.6712,42.0474],[0.6688,42.0612],[0.6996,42.107],[0.6959,42.152],[0.714,42.1634],[0.6986,42.1727],[0.7026,42.1901],[0.7142,42.21],[0.7149,42.2248],[0.735,42.2522],[0.7449,42.3012],[0.7646,42.3225],[0.7437,42.3263],[0.7404,42.3369],[0.7713,42.3507],[0.7233,42.3656],[0.7461,42.3848],[0.7382,42.3997],[0.726,42.4053],[0.7359,42.414],[0.7102,42.4364],[0.7085,42.4589],[0.6905,42.4876],[0.698,42.4864],[0.7005,42.4959],[0.7133,42.4873],[0.7395,42.5052],[0.7193,42.5128],[0.7216,42.5252],[0.7351,42.5401],[0.7496,42.535],[0.7409,42.545],[0.7586,42.5722],[0.7675,42.6113],[0.7364,42.613],[0.6983,42.6293],[0.6951,42.6587],[0.66,42.6884],[0.6763,42.6911],[0.682,42.7091],[0.6751,42.7172],[0.6802,42.7233],[0.6634,42.7498],[0.6419,42.7548],[0.6683,42.7748],[0.6449,42.7831],[0.6702,42.802],[0.6652,42.8143],[0.6701,42.8244],[0.6592,42.8354],[0.6787,42.8483],[0.6783,42.8551],[0.7082,42.8613],[0.7788,42.8361],[0.8015,42.8405],[0.8583,42.8257],[0.9258,42.7897],[0.9355,42.7888],[0.9604,42.8052],[0.9845,42.7862],[1.0071,42.7902],[1.0441,42.7808],[1.0732,42.7824],[1.078,42.7877],[1.1292,42.7527],[1.1332,42.7283],[1.1707,42.7082],[1.2293,42.7277],[1.2519,42.7148],[1.3093,42.7179],[1.3259,42.7241],[1.3574,42.7194],[1.3518,42.7029],[1.3879,42.6873],[1.3871,42.6688],[1.413,42.6526],[1.4209,42.6249],[1.442,42.5993],[1.4407,42.5881],[1.4284,42.5878],[1.4273,42.5831],[1.4446,42.5667],[1.4262,42.5587],[1.4142,42.5377],[1.4437,42.5426],[1.4526,42.5382],[1.4539,42.5271],[1.4692,42.5108],[1.4434,42.4952],[1.4258,42.4935],[1.4192,42.4838],[1.441,42.4755],[1.4401,42.4644],[1.4475,42.4601],[1.4418,42.4535],[1.4441,42.4437],[1.4566,42.4359],[1.5123,42.4296],[1.5526,42.4335],[1.5612,42.4587],[1.5809,42.45],[1.5976,42.4676],[1.63,42.4636],[1.6559,42.4682],[1.6704,42.5042],[1.6789,42.4955],[1.7036,42.4898],[1.7263,42.5049],[1.7309,42.4925],[1.8303,42.4832],[1.8562,42.4637],[1.881,42.459],[1.8908,42.4481],[1.9157,42.4462],[1.9338,42.4542],[1.9429,42.4445],[1.9412,42.4305],[1.9582,42.4236],[1.9552,42.4121],[1.9644,42.3826],[1.9858,42.3622],[2.0152,42.3474],[2.0235,42.3552],[2.084,42.3622],[2.0895,42.3737],[2.1164,42.3834],[2.1151,42.3944],[2.1244,42.4076],[2.1569,42.4234],[2.2068,42.4172],[2.2458,42.4286],[2.2571,42.4385],[2.2912,42.4229],[2.3106,42.4284],[2.3608,42.4029],[2.4333,42.392],[2.4355,42.3753],[2.4669,42.3595],[2.4832,42.3399],[2.4984,42.3426],[2.5333,42.3335],[2.542,42.3339],[2.5552,42.3527],[2.5668,42.3571],[2.6716,42.3408],[2.6752,42.3572],[2.6624,42.3659],[2.6529,42.3844],[2.6712,42.3869],[2.6739,42.4045],[2.6932,42.4064],[2.724,42.4227],[2.7519,42.4254],[2.7768,42.4117],[2.7993,42.4183],[2.8159,42.4379],[2.8277,42.4394],[2.8399,42.459],[2.8576,42.4542],[2.8708,42.4669],[2.9184,42.4562],[2.9471,42.4818],[2.9675,42.4655],[2.9868,42.4731],[3.0132,42.4664],[3.0409,42.4726],[3.0474,42.4568],[3.0858,42.4258],[3.1026,42.4266],[3.1208,42.438],[3.1743,42.4351],[3.161,42.4282],[3.1707,42.4246],[3.171,42.416],[3.1565,42.4068],[3.1649,42.4004],[3.1526,42.3935],[3.1674,42.3899],[3.1554,42.3812],[3.1588,42.3718],[3.1657,42.3743],[3.1632,42.3604],[3.1879,42.3518],[3.1857,42.3432],[3.1971,42.3349],[3.2026,42.3363],[3.204,42.3476],[3.2304,42.3521],[3.2385,42.349],[3.2374,42.3421],[3.2501,42.3299],[3.2499,42.3351],[3.2682,42.3404],[3.2865,42.334],[3.2876,42.3282],[3.3057,42.3285],[3.3099,42.3207],[3.3115,42.3251],[3.3226,42.3193],[3.3029,42.3107],[3.3007,42.3043],[3.2901,42.3065],[3.2921,42.2951],[3.2871,42.2924],[3.2968,42.2951],[3.2999,42.2849],[3.2924,42.2801],[3.2776,42.2876],[3.2879,42.2657],[3.2818,42.254],[3.2537,42.2526],[3.2554,42.244],[3.2665,42.2426],[3.264,42.2368],[3.2488,42.2401],[3.2437,42.2496],[3.2285,42.2513],[3.229,42.2401],[3.2179,42.2321],[3.1971,42.2471],[3.1829,42.2451],[3.1799,42.2593],[3.1629,42.2649],[3.1382,42.2524],[3.119,42.229],[3.1096,42.1937],[3.1151,42.1465],[3.1249,42.1271],[3.1368,42.1271],[3.1371,42.1157],[3.1493,42.1215],[3.1768,42.1115],[3.1699,42.1051],[3.1826,42.1049],[3.2029,42.0824],[3.1985,42.0779],[3.2126,42.069],[3.2118,42.054],[3.1993,42.0526],[3.196,42.0462],[3.1938,42.024],[3.1707,42.0232],[3.1935,42.0229],[3.2104,41.9724],[3.231,41.9696],[3.2338,41.9496],[3.2182,41.9421],[3.2201,41.9215],[3.2082,41.9174],[3.211,41.904],[3.2026,41.8913],[3.1829,41.8874],[3.179,41.8668],[3.1443,41.8582],[3.146,41.8504],[3.1307,41.8413],[3.121,41.8413],[3.1226,41.8485],[3.101,41.8443],[3.071,41.8193],[3.0668,41.8007],[3.0565,41.7865],[3.0468,41.7896],[3.0443,41.7785],[3.031,41.7804],[3.0321,41.7713],[3.0096,41.7718],[2.9776,41.7576],[2.9407,41.7196],[2.9337,41.7193],[2.9349,41.7146],[2.8188,41.6885],[2.8035,41.6735],[2.7929,41.6738],[2.7735,41.6474],[2.7468,41.6435],[2.7182,41.6287],[2.569,41.5829],[2.5604,41.5743],[2.561,41.5788],[2.5521,41.5788],[2.5074,41.5563],[2.4629,41.5435],[2.4451,41.526],[2.441,41.529],[2.381,41.4951],[2.266,41.4593],[2.2396,41.4335],[2.2343,41.4165],[2.1951,41.3835],[2.1738,41.3421],[2.1726,41.349],[2.186,41.366],[2.186,41.3779],[2.1785,41.3749],[2.1807,41.3654],[2.1732,41.3638],[2.1707,41.3515],[2.1454,41.336],[2.1493,41.3315],[2.1568,41.3424],[2.1649,41.3407],[2.1524,41.3229],[2.1426,41.3213],[2.1388,41.3074],[2.1079,41.2874],[2.0274,41.2668],[1.9321,41.2626],[1.8693,41.2421],[1.8663,41.2363],[1.8246,41.2318],[1.814,41.236],[1.7843,41.2232],[1.7365,41.2163],[1.7388,41.2104],[1.7301,41.2054],[1.7371,41.2113],[1.7307,41.2151],[1.7293,41.2076],[1.7218,41.2132],[1.6571,41.1935],[1.6479,41.1968],[1.5379,41.1829],[1.5254,41.1807],[1.5265,41.176],[1.5213,41.1799],[1.4454,41.1593],[1.4046,41.1407],[1.4018,41.1321],[1.3737,41.1338],[1.344,41.1246],[1.3007,41.129],[1.2746,41.1193],[1.2713,41.1129],[1.2563,41.1124],[1.2215,41.0835],[1.2279,41.096],[1.2485,41.1087],[1.2282,41.099],[1.2143,41.1035],[1.1988,41.0946],[1.2085,41.0815],[1.1946,41.0907],[1.1724,41.0546],[1.161,41.0557],[1.144,41.0726],[1.1232,41.0749],[1.0846,41.064],[1.0676,41.0662],[1.0626,41.0604],[1.0632,41.0651],[1.0507,41.0649],[0.9876,41.0412],[0.9529,41.0182],[0.931,40.9882],[0.9162,40.9893],[0.8754,40.9512],[0.8626,40.9471],[0.851,40.9265],[0.8376,40.919],[0.7932,40.8674],[0.7488,40.8429],[0.7418,40.8229],[0.6996,40.8021],[0.7043,40.786],[0.7335,40.7682],[0.7707,40.764],[0.7826,40.7724],[0.7262,40.7901],[0.7718,40.7915],[0.8304,40.7335],[0.8743,40.7318],[0.8788,40.7157],[0.8629,40.6893],[0.7568,40.6399],[0.704,40.581],[0.6704,40.5604],[0.6185,40.554],[0.6035,40.5612],[0.596,40.5765],[0.6132,40.5768],[0.6182,40.5865],[0.6363,40.5826],[0.6315,40.5782],[0.6432,40.5749],[0.6421,40.5793],[0.6568,40.5793],[0.6432,40.5838],[0.6613,40.5918],[0.6557,40.5874],[0.6607,40.576],[0.6651,40.5788],[0.6599,40.5854],[0.6774,40.5893],[0.6693,40.5924],[0.7112,40.5926],[0.7443,40.6362],[0.6929,40.6393],[0.6635,40.6263],[0.601,40.6221],[0.6026,40.6154],[0.5963,40.6146],[0.6035,40.6093],[0.5915,40.6138],[0.5485,40.5749],[0.5568,40.5715],[0.5468,40.5737],[0.5382,40.5671],[0.5346,40.5513],[0.5226,40.5426],[0.5151,40.523],[0.438,40.5471]]],[[[0.7321,40.7793],[0.7451,40.7726],[0.7354,40.7726],[0.7268,40.7776],[0.7321,40.7793]]],[[[1.9767,42.4862],[1.9804,42.4944],[1.9967,42.4867],[1.9866,42.4727],[1.9918,42.4626],[2.0128,42.4527],[2.0102,42.4492],[1.9818,42.4476],[1.9602,42.4535],[1.9627,42.4768],[1.9767,42.4862]]],[[[1.6068,41.1857],[1.6068,41.1857]]],[[[2.1707,41.3376],[2.1707,41.3376]]],[[[3.1846,41.8629],[3.1846,41.8629]]],[[[3.2262,42.0415],[3.2262,42.0415]]],[[[3.226,42.0429],[3.226,42.0429]]],[[[3.2268,42.0476],[3.219,42.049],[3.2268,42.0476]]],[[[3.3218,42.3235],[3.3218,42.3235]]]]}}